              M50 Cartesian                         J2K Cartesian  
    -----------------------------------       --------------------------------
     X    =      -18751015.12                 X    =        -5750298.88
     Y    =       11638452.65  feet           Y    =         3483292.26  meter
     Z    =       -2872987.32                 Z    =         -903535.13
     XDOT =     -10415.830912                 XDOT =       -3162.511631
     YDOT =     -11995.079135  feet/sec       YDOT =       -3691.533227  meter/sec
     ZDOT =      19509.857288                 ZDOT =        5931.212632
 
              TDR Cartesian                         TDR Cartesian  
    -----------------------------------       --------------------------------
     X    =      -17759674.67                 X    =        -5413148.84
     Y    =       13074217.59  feet           Y    =         3985021.52  meter
     Z    =       -2994494.01                 Z    =         -912721.78
     XDOT =     -10497.499937                 XDOT =       -3199.637981
     YDOT =      -9832.850294  feet/sec       YDOT =       -2997.052769  meter/sec
     ZDOT =      19443.581973                 ZDOT =        5926.403785
  
  
    The mean element set is posted at the UTC for which position is
    just north of the next ascending node relative to the above
    vector time
 
 
    TWO LINE MEAN ELEMENT SET
  
    ISS
    1 25544U 98067A   16077.52908853  .00016717  00000-0  10270-3 0  9019
    2 25544  51.6420 155.1603 0002026 310.2523  49.8452 15.54121272 30721
  
  
    Satellite: ISS
    Catalog Number: 25544
    Epoch time:      16077.52908853   =   yrday.fracday
    Element set:     901
    Inclination:       51.6420  deg
    RA of node:       155.1603  deg
    Eccentricity:     .0002026     
    Arg of perigee:   310.2523  deg
    Mean anomaly:      49.8452  deg
    Mean motion:   15.54121272  rev/day
    Decay rate:    1.67170E-04  rev/day^2
    Epoch rev:            3072
    Checksum:              274
 
 
    Coasting Arc #3 (Orbit 3087)
    ---------------------------------------
 
    Vector Time (GMT): 2016/078/12:39:20.524
    Vector Time (MET): N/A
    Weight (LBS)     : 890089.9
 
              M50 Cartesian                         M50 Keplerian  
    -----------------------------------       --------------------------------
     X    =        6095516.75                 A    =         6788846.97  meter
     Y    =       -2849147.50  meter          E    =           .0008321
     Z    =        -873818.71                 I    =           51.84516
     XDOT =       1326.983708                 Wp   =          142.00444
     YDOT =       4652.000019  meter/sec      RA   =          149.09172  deg
     ZDOT =      -5947.961650                 TA   =           47.42186
                                              MA   =           47.35167
                                              Ha   =            220.522  n.mi
                                              Hp   =            215.042
 
              M50 Cartesian                         J2K Cartesian  
    -----------------------------------       --------------------------------
     X    =       19998414.54                 X    =         6131168.18
     Y    =       -9347596.77  feet           Y    =        -2780784.14  meter
     Z    =       -2866859.30                 Z    =         -844121.66
     XDOT =       4353.621088                 XDOT =        1303.757554
     YDOT =      15262.467253  feet/sec       YDOT =        4666.708687  meter/sec
     ZDOT =     -19514.309874                 ZDOT =       -5941.572518
 
              TDR Cartesian                         TDR Cartesian  
    -----------------------------------       --------------------------------
     X    =       19029753.17                 X    =         5800268.77
     Y    =      -11220876.43  feet           Y    =        -3420123.13  meter
     Z    =       -2737418.19                 Z    =         -834365.06
     XDOT =       5100.903170                 XDOT =        1554.755286
     YDOT =      13374.256418  feet/sec       YDOT =        4076.473356  meter/sec
     ZDOT =     -19487.289450                 ZDOT =       -5939.725824
  
  
    The mean element set is posted at the UTC for which position is
    just north of the next ascending node relative to the above
    vector time
 
 
    TWO LINE MEAN ELEMENT SET
  
    ISS
    1 25544U 98067A   16078.55789122  .00016717  00000-0  10270-3 0  9020
    2 25544  51.6420 150.0311 0001878 316.1072  43.9931 15.54191960 30884
  
  
    Satellite: ISS
    Catalog Number: 25544
    Epoch time:      16078.55789122   =   yrday.fracday
    Element set:     902
    Inclination:       51.6420  deg
    RA of node:       150.0311  deg
    Eccentricity:     .0001878     
    Arg of perigee:   316.1072  deg
    Mean anomaly:      43.9931  deg
    Mean motion:   15.54191960  rev/day
    Decay rate:    1.67170E-04  rev/day^2
    Epoch rev:            3088
    Checksum:              298
 
 
    Coasting Arc #4 (Orbit 3103)
    ---------------------------------------
 
    Vector Time (GMT): 2016/079/12:39:20.524
    Vector Time (MET): N/A
    Weight (LBS)     : 890089.9
 
              M50 Cartesian                         M50 Keplerian  
    -----------------------------------       --------------------------------
     X    =       -6002012.93                 A    =         6786549.26  meter
     Y    =        1907891.62  meter          E    =           .0013146
     Z    =        2509903.64                 I    =           51.86426
     XDOT =        482.784790                 Wp   =           67.60021
     YDOT =      -5504.674394  meter/sec      RA   =          144.13254  deg
     ZDOT =       5321.533524                 TA   =          320.47802
                                              MA   =          320.57381
                                              Ha   =            220.653  n.mi
                                              Hp   =            214.996
 
              M50 Cartesian                         J2K Cartesian  
    -----------------------------------       --------------------------------
     X    =      -19691643.47                 X    =        -6035093.25
     Y    =        6259486.94  feet           Y    =         1840588.48  meter
     Z    =        8234591.98                 Z    =         2480667.12
     XDOT =       1583.939600                 XDOT =         518.454138
     YDOT =     -18059.955362  feet/sec       YDOT =       -5499.075445  meter/sec
     ZDOT =      17459.099489                 ZDOT =        5323.966091
 
              TDR Cartesian                         TDR Cartesian  
    -----------------------------------       --------------------------------
     X    =      -18911770.45                 X    =        -5764307.63
     Y    =        8447920.44  feet           Y    =         2574926.15  meter
     Z    =        8107285.81                 Z    =         2471100.71
     XDOT =         40.834847                 XDOT =          12.446461
     YDOT =     -16730.061373  feet/sec       YDOT =       -5099.322706  meter/sec
     ZDOT =      17470.534795                 ZDOT =        5325.019005
  
  
    The mean element set is posted at the UTC for which position is
    just north of the next ascending node relative to the above
    vector time
 
 
    TWO LINE MEAN ELEMENT SET
  
    ISS
    1 25544U 98067A   16079.58667827  .00016717  00000-0  10270-3 0  9032
    2 25544  51.6419 144.9016 0001901 323.6116  36.4907 15.54194913 31045
  
  
    Satellite: ISS
    Catalog Number: 25544
    Epoch time:      16079.58667827   =   yrday.fracday
    Element set:     903
    Inclination:       51.6419  deg
    RA of node:       144.9016  deg
    Eccentricity:     .0001901     
    Arg of perigee:   323.6116  deg
    Mean anomaly:      36.4907  deg
    Mean motion:   15.54194913  rev/day
    Decay rate:    1.67170E-04  rev/day^2
    Epoch rev:            3104
    Checksum:              311
 
 
    Coasting Arc #5 (Orbit 3118)
    ---------------------------------------
 
    Vector Time (GMT): 2016/080/12:39:20.524
    Vector Time (MET): N/A
    Weight (LBS)     : 890089.9
 
              M50 Cartesian                         M50 Keplerian  
    -----------------------------------       --------------------------------
     X    =        5503283.86                 A    =         6782680.55  meter
     Y    =        -701464.36  meter          E    =           .0006099
     Z    =       -3909185.13                 I    =           51.87742
     XDOT =      -2137.133548                 Wp   =           57.74779
     YDOT =       6105.194570  meter/sec      RA   =          139.16620  deg
     ZDOT =      -4105.640365                 TA   =          169.32198
                                              MA   =          169.30903
                                              Ha   =            220.588  n.mi
                                              Hp   =            214.971
 
              M50 Cartesian                         J2K Cartesian  
    -----------------------------------       --------------------------------
     X    =       18055393.24                 X    =         5529707.73
     Y    =       -2301392.26  feet           Y    =         -639775.80  meter
     Z    =      -12825410.53                 Z    =        -3882387.57
     XDOT =      -7011.593006                 XDOT =       -2185.301295
     YDOT =      20030.165911  feet/sec       YDOT =        6081.025807  meter/sec
     ZDOT =     -13469.948704                 ZDOT =       -4116.139784
 
